{
  "type": "FeatureCollection",
  "name": "batas_dusun_kebonrejo_3",
  "features": [
    {
      "type": "Feature",
      "properties": {
        "nama": "Dusun Kebonrejo 3",
        "keterangan": "Batas dusun sementara hasil penggabungan (union) polygon RT. Bukan batas administrasi resmi definitif."
      },
      "geometry": {
        "type": "Polygon",
        "coordinates": [
          [
            [
              110.27906985904866,
              -7.50194929978972
            ],
            [
              110.27964280999237,
              -7.501927717466831
            ],
            [
              110.27977603414793,
              -7.503056903162867
            ],
            [
              110.27963323178507,
              -7.503077622139083
            ],
            [
              110.27956618433424,
              -7.503091434789347
            ],
            [
              110.27955834761919,
              -7.503291718168859
            ],
            [
              110.27930931423032,
              -7.503292581459086
            ],
            [
              110.27933021213707,
              -7.503095751242461
            ],
            [
              110.27921091991932,
              -7.503075895557768
            ],
            [
              110.27919437574312,
              -7.502875612078897
            ],
            [
              110.27869717971146,
              -7.502829857650525
            ],
            [
              110.27855154742382,
              -7.502824677903615
            ],
            [
              110.27855328891606,
              -7.502972300666415
            ],
            [
              110.27823982031464,
              -7.50296366775769
            ],
            [
              110.27822675912292,
              -7.502753024731679
            ],
            [
              110.27793767141276,
              -7.502736622196686
            ],
            [
              110.2778458076977,
              -7.503652573335404
            ],
            [
              110.2775218901429,
              -7.503611135436755
            ],
            [
              110.27754278804967,
              -7.503343515579584
            ],
            [
              110.27712831289897,
              -7.503295171329765
            ],
            [
              110.2772362854172,
              -7.50278237663486
            ],
            [
              110.27701685739623,
              -7.502709860164575
            ],
            [
              110.27705691171755,
              -7.502492310681196
            ],
            [
              110.27732510152094,
              -7.502523389185481
            ],
            [
              110.27735993136554,
              -7.502216057212192
            ],
            [
              110.27720493855708,
              -7.502179798931366
            ],
            [
              110.27727285675404,
              -7.501780957642817
            ],
            [
              110.27753756357299,
              -7.501793043747844
            ],
            [
              110.27758893759378,
              -7.501425280687497
            ],
            [
              110.27780252316536,
              -7.501437860348018
            ],
            [
              110.27781554927039,
              -7.501181184259272
            ],
            [
              110.27766229795411,
              -7.501160465192743
            ],
            [
              110.27766099183495,
              -7.501123775176688
            ],
            [
              110.2775321214099,
              -7.501120753645813
            ],
            [
              110.27754082887105,
              -7.500923922446657
            ],
            [
              110.27729876145109,
              -7.500925649036508
            ],
            [
              110.27729179548218,
              -7.500768529331798
            ],
            [
              110.27785081448799,
              -7.500713278433143
            ],
            [
              110.27804237863329,
              -7.500716731614512
            ],
            [
              110.27804412012554,
              -7.500885937468149
            ],
            [
              110.27853173794992,
              -7.500884210878136
            ],
            [
              110.27862490778419,
              -7.500823780223437
            ],
            [
              110.27863013226087,
              -7.500635581845038
            ],
            [
              110.2790028115981,
              -7.500629538776494
            ],
            [
              110.27899345107714,
              -7.501736929685964
            ],
            [
              110.27888504318585,
              -7.501742972739128
            ],
            [
              110.27899345107716,
              -7.501736929685964
            ],
            [
              110.27902828092175,
              -7.501949299789723
            ],
            [
              110.27902893398128,
              -7.50204210376593
            ],
            [
              110.27906985904866,
              -7.50194929978972
            ]
          ],
          [
            [
              110.27888068945526,
              -7.50168858525761
            ],
            [
              110.2786930436675,
              -7.501686858670792
            ],
            [
              110.27888068945526,
              -7.501688585257613
            ],
            [
              110.27888504318585,
              -7.501742972739128
            ],
            [
              110.27888068945526,
              -7.50168858525761
            ]
          ],
          [
            [
              110.27873200955607,
              -7.502378356146486
            ],
            [
              110.27890180504846,
              -7.502369723225977
            ],
            [
              110.27890746489825,
              -7.502061096205131
            ],
            [
              110.27890180504845,
              -7.502369723225977
            ],
            [
              110.27873200955607,
              -7.502378356146483
            ],
            [
              110.27873200891234,
              -7.502378364491033
            ],
            [
              110.27873200955607,
              -7.502378356146486
            ]
          ],
          [
            [
              110.27792504559417,
              -7.502022679679521
            ],
            [
              110.27792526328076,
              -7.502078362058231
            ],
            [
              110.27794071902426,
              -7.501445999741411
            ],
            [
              110.27792504559417,
              -7.502022679679521
            ]
          ]
        ]
      }
    }
  ]
}