{
"type": "FeatureCollection",
"name": "Batas_Antar_RT",
"crs": { "type": "name", "properties": { "name": "urn:ogc:def:crs:OGC:1.3:CRS84" } },
"features": [
{ "type": "Feature", "properties": { "id": 1, "rt": "4", "rw": "6", "luas": null }, "geometry": { "type": "MultiPolygon", "coordinates": [ [ [ [ 110.278907464898253, -7.502061096205131 ], [ 110.27902893398128, -7.50204210376593 ], [ 110.279069859048661, -7.50194929978972 ], [ 110.279642809992367, -7.501927717466831 ], [ 110.279776034147929, -7.503056903162867 ], [ 110.27963323178507, -7.503077622139083 ], [ 110.279566184334243, -7.503091434789347 ], [ 110.279558347619187, -7.503291718168859 ], [ 110.279309314230318, -7.503292581459086 ], [ 110.279330212137069, -7.503095751242461 ], [ 110.279210919919322, -7.503075895557768 ], [ 110.279194375743117, -7.502875612078897 ], [ 110.278697179711457, -7.502829857650525 ], [ 110.278732009556066, -7.502378356146486 ], [ 110.278901805048463, -7.502369723225977 ], [ 110.278907464898253, -7.502061096205131 ] ] ] ] } },
{ "type": "Feature", "properties": { "id": 2, "rt": "3", "rw": "6", "luas": null }, "geometry": { "type": "MultiPolygon", "coordinates": [ [ [ [ 110.278697179711457, -7.502829857650525 ], [ 110.278551547423817, -7.502824677903615 ], [ 110.278553288916058, -7.502972300666415 ], [ 110.278239820314639, -7.50296366775769 ], [ 110.278226759122916, -7.502753024731679 ], [ 110.277937671412758, -7.502736622196686 ], [ 110.277968147526792, -7.502076203826636 ], [ 110.278083086013979, -7.502078793704552 ], [ 110.27807786153727, -7.501849157802488 ], [ 110.278147521226472, -7.501857790733331 ], [ 110.278152745703167, -7.501804266559355 ], [ 110.278692608294435, -7.501833618526543 ], [ 110.278701315755612, -7.501817215956888 ], [ 110.278693043667502, -7.501686858670792 ], [ 110.278880689455264, -7.501688585257613 ], [ 110.278885043185852, -7.501742972739128 ], [ 110.278993451077156, -7.501736929685964 ], [ 110.27902828092175, -7.501949299789723 ], [ 110.27902893398128, -7.502042103765931 ], [ 110.278907464898253, -7.502061096205131 ], [ 110.278901805048449, -7.502369723225977 ], [ 110.278732009556066, -7.502378356146483 ], [ 110.278718614202077, -7.502552001032708 ], [ 110.278697179711457, -7.502829857650525 ] ] ] ] } },
{ "type": "Feature", "properties": { "id": 3, "rt": "2", "rw": "5", "luas": null }, "geometry": { "type": "MultiPolygon", "coordinates": [ [ [ [ 110.277937671412758, -7.502736622196686 ], [ 110.277845807697702, -7.503652573335404 ], [ 110.277521890142907, -7.503611135436755 ], [ 110.277542788049672, -7.503343515579584 ], [ 110.277128312898967, -7.503295171329765 ], [ 110.277236285417203, -7.50278237663486 ], [ 110.277016857396234, -7.502709860164575 ], [ 110.277056911717551, -7.502492310681196 ], [ 110.277325101520944, -7.502523389185481 ], [ 110.277359931365538, -7.502216057212192 ], [ 110.277204938557077, -7.502179798931366 ], [ 110.277272856754038, -7.501780957642817 ], [ 110.277537563572992, -7.501793043747844 ], [ 110.277588937593777, -7.501425280687497 ], [ 110.277940719024258, -7.501445999741411 ], [ 110.277925045594174, -7.502022679679521 ], [ 110.277925263280764, -7.502078362058231 ], [ 110.277968147526792, -7.502076203826636 ], [ 110.277937671412758, -7.502736622196686 ] ] ] ] } },
{ "type": "Feature", "properties": { "id": 4, "rt": "1", "rw": "5", "luas": null }, "geometry": { "type": "MultiPolygon", "coordinates": [ [ [ [ 110.278993451077142, -7.501736929685964 ], [ 110.278885043185852, -7.501742972739128 ], [ 110.278880689455264, -7.50168858525761 ], [ 110.278693043667502, -7.501686858670792 ], [ 110.278701315755612, -7.501817215956888 ], [ 110.278692608294435, -7.501833618526543 ], [ 110.278152745703167, -7.501804266559355 ], [ 110.278147521226472, -7.501857790733331 ], [ 110.27807786153727, -7.501849157802488 ], [ 110.278083086013979, -7.502078793704552 ], [ 110.277968147526792, -7.502076203826636 ], [ 110.277925263280764, -7.502078362058231 ], [ 110.277940719024258, -7.501445999741411 ], [ 110.277802523165363, -7.501437860348135 ], [ 110.277815549270386, -7.501181184259272 ], [ 110.277662297954109, -7.501160465192743 ], [ 110.277660991834949, -7.501123775176688 ], [ 110.277532121409905, -7.501120753645813 ], [ 110.277540828871054, -7.500923922446657 ], [ 110.277298761451092, -7.500925649036508 ], [ 110.277291795482185, -7.500768529331798 ], [ 110.277850814487991, -7.500713278433143 ], [ 110.278042378633288, -7.500716731614512 ], [ 110.278044120125543, -7.500885937468149 ], [ 110.278531737949919, -7.500884210878136 ], [ 110.278624907784192, -7.500823780223437 ], [ 110.278630132260872, -7.500635581845038 ], [ 110.279002811598104, -7.500629538776494 ], [ 110.278993451077142, -7.501736929685964 ] ] ] ] } }
]
}
